CCSDS_OMM_VERS = 2.0
CREATION_DATE  = 
ORIGINATOR     = 

OBJECT_NAME    = 2025-284B
OBJECT_ID      = 2025-284B
CENTER_NAME    = EARTH
REF_FRAME      = TEME
TIME_SYSTEM    = UTC
MEAN_ELEMENT_THEORY = SGP/SGP4

EPOCH          = 2025-12-07T23:38:29.178816
MEAN_MOTION    = 15.20093076
ECCENTRICITY   = .0012859
INCLINATION    = 80.4047
RA_OF_ASC_NODE = 135.7909
ARG_OF_PERICENTER = 245.1406
MEAN_ANOMALY   = 114.8485

EPHEMERIS_TYPE = 0
CLASSIFICATION_TYPE = U
NORAD_CAT_ID   = 66914
ELEMENT_SET_NO = 999
REV_AT_EPOCH   = 40
BSTAR          = .60156E-3
MEAN_MOTION_DOT = .13048E-3
MEAN_MOTION_DDOT = 0

CCSDS_OMM_VERS = 2.0
CREATION_DATE  = 
ORIGINATOR     = 

OBJECT_NAME    = HULIANWANG DIGUI 14A
OBJECT_ID      = 2025-285A
CENTER_NAME    = EARTH
REF_FRAME      = TEME
TIME_SYSTEM    = UTC
MEAN_ELEMENT_THEORY = SGP/SGP4

EPOCH          = 2025-12-08T20:41:37.709664
MEAN_MOTION    = 14.05465762
ECCENTRICITY   = .0008095
INCLINATION    = 50.0042
RA_OF_ASC_NODE = 133.0995
ARG_OF_PERICENTER = 269.5981
MEAN_ANOMALY   = 90.3997

EPHEMERIS_TYPE = 0
CLASSIFICATION_TYPE = U
NORAD_CAT_ID   = 66915
ELEMENT_SET_NO = 999
REV_AT_EPOCH   = 36
BSTAR          = .15281E-4
MEAN_MOTION_DOT = -.127E-5
MEAN_MOTION_DDOT = 0

CCSDS_OMM_VERS = 2.0
CREATION_DATE  = 
ORIGINATOR     = 

OBJECT_NAME    = HULIANWANG DIGUI 14B
OBJECT_ID      = 2025-285B
CENTER_NAME    = EARTH
REF_FRAME      = TEME
TIME_SYSTEM    = UTC
MEAN_ELEMENT_THEORY = SGP/SGP4

EPOCH          = 2025-12-08T20:41:30.051168
MEAN_MOTION    = 14.05512167
ECCENTRICITY   = .000695
INCLINATION    = 50.0053
RA_OF_ASC_NODE = 133.1001
ARG_OF_PERICENTER = 264.3165
MEAN_ANOMALY   = 95.6948

EPHEMERIS_TYPE = 0
CLASSIFICATION_TYPE = U
NORAD_CAT_ID   = 66916
ELEMENT_SET_NO = 999
REV_AT_EPOCH   = 36
BSTAR          = .15124E-4
MEAN_MOTION_DOT = -.127E-5
MEAN_MOTION_DDOT = 0

CCSDS_OMM_VERS = 2.0
CREATION_DATE  = 
ORIGINATOR     = 

OBJECT_NAME    = HULIANWANG DIGUI 14C
OBJECT_ID      = 2025-285C
CENTER_NAME    = EARTH
REF_FRAME      = TEME
TIME_SYSTEM    = UTC
MEAN_ELEMENT_THEORY = SGP/SGP4

EPOCH          = 2025-12-08T20:41:18.568608
MEAN_MOTION    = 14.05578257
ECCENTRICITY   = .0007533
INCLINATION    = 50.0018
RA_OF_ASC_NODE = 133.0964
ARG_OF_PERICENTER = 272.1207
MEAN_ANOMALY   = 87.8835

EPHEMERIS_TYPE = 0
CLASSIFICATION_TYPE = U
NORAD_CAT_ID   = 66917
ELEMENT_SET_NO = 999
REV_AT_EPOCH   = 36
BSTAR          = -.51424E-5
MEAN_MOTION_DOT = -.161E-5
MEAN_MOTION_DDOT = 0

CCSDS_OMM_VERS = 2.0
CREATION_DATE  = 
ORIGINATOR     = 

OBJECT_NAME    = HULIANWANG DIGUI 14D
OBJECT_ID      = 2025-285D
CENTER_NAME    = EARTH
REF_FRAME      = TEME
TIME_SYSTEM    = UTC
MEAN_ELEMENT_THEORY = SGP/SGP4

EPOCH          = 2025-12-08T20:41:00.370176
MEAN_MOTION    = 14.05702904
ECCENTRICITY   = .0006433
INCLINATION    = 50.0041
RA_OF_ASC_NODE = 133.0972
ARG_OF_PERICENTER = 267.2757
MEAN_ANOMALY   = 92.7412

EPHEMERIS_TYPE = 0
CLASSIFICATION_TYPE = U
NORAD_CAT_ID   = 66918
ELEMENT_SET_NO = 999
REV_AT_EPOCH   = 36
BSTAR          = .14778E-4
MEAN_MOTION_DOT = -.128E-5
MEAN_MOTION_DDOT = 0

CCSDS_OMM_VERS = 2.0
CREATION_DATE  = 
ORIGINATOR     = 

OBJECT_NAME    = HULIANWANG DIGUI 14E
OBJECT_ID      = 2025-285E
CENTER_NAME    = EARTH
REF_FRAME      = TEME
TIME_SYSTEM    = UTC
MEAN_ELEMENT_THEORY = SGP/SGP4

EPOCH          = 2025-12-08T20:40:56.853696
MEAN_MOTION    = 14.05713942
ECCENTRICITY   = .0007838
INCLINATION    = 50.0055
RA_OF_ASC_NODE = 133.0994
ARG_OF_PERICENTER = 278.6052
MEAN_ANOMALY   = 81.3966

EPHEMERIS_TYPE = 0
CLASSIFICATION_TYPE = U
NORAD_CAT_ID   = 66919
ELEMENT_SET_NO = 999
REV_AT_EPOCH   = 36
BSTAR          = -.91601E-5
MEAN_MOTION_DOT = -.167E-5
MEAN_MOTION_DDOT = 0

CCSDS_OMM_VERS = 2.0
CREATION_DATE  = 
ORIGINATOR     = 

OBJECT_NAME    = HULIANWANG DIGUI 14F
OBJECT_ID      = 2025-285F
CENTER_NAME    = EARTH
REF_FRAME      = TEME
TIME_SYSTEM    = UTC
MEAN_ELEMENT_THEORY = SGP/SGP4

EPOCH          = 2025-12-08T20:40:37.528608
MEAN_MOTION    = 14.05850354
ECCENTRICITY   = .0005895
INCLINATION    = 50.0084
RA_OF_ASC_NODE = 133.1005
ARG_OF_PERICENTER = 274.9203
MEAN_ANOMALY   = 85.1030

EPHEMERIS_TYPE = 0
CLASSIFICATION_TYPE = U
NORAD_CAT_ID   = 66920
ELEMENT_SET_NO = 999
REV_AT_EPOCH   = 36
BSTAR          = .1454E-3
MEAN_MOTION_DOT = .87E-6
MEAN_MOTION_DDOT = 0

CCSDS_OMM_VERS = 2.0
CREATION_DATE  = 
ORIGINATOR     = 

OBJECT_NAME    = HULIANWANG DIGUI 14G
OBJECT_ID      = 2025-285G
CENTER_NAME    = EARTH
REF_FRAME      = TEME
TIME_SYSTEM    = UTC
MEAN_ELEMENT_THEORY = SGP/SGP4

EPOCH          = 2025-12-08T20:40:32.066400
MEAN_MOTION    = 14.05882293
ECCENTRICITY   = .0006959
INCLINATION    = 50.0114
RA_OF_ASC_NODE = 133.1024
ARG_OF_PERICENTER = 282.0248
MEAN_ANOMALY   = 77.9877

EPHEMERIS_TYPE = 0
CLASSIFICATION_TYPE = U
NORAD_CAT_ID   = 66921
ELEMENT_SET_NO = 999
REV_AT_EPOCH   = 36
BSTAR          = .14289E-4
MEAN_MOTION_DOT = -.129E-5
MEAN_MOTION_DDOT = 0

CCSDS_OMM_VERS = 2.0
CREATION_DATE  = 
ORIGINATOR     = 

OBJECT_NAME    = HULIANWANG DIGUI 14H
OBJECT_ID      = 2025-285H
CENTER_NAME    = EARTH
REF_FRAME      = TEME
TIME_SYSTEM    = UTC
MEAN_ELEMENT_THEORY = SGP/SGP4

EPOCH          = 2025-12-08T20:40:14.885760
MEAN_MOTION    = 14.05997561
ECCENTRICITY   = .0006912
INCLINATION    = 50.0077
RA_OF_ASC_NODE = 133.0983
ARG_OF_PERICENTER = 288.2879
MEAN_ANOMALY   = 71.7274

EPHEMERIS_TYPE = 0
CLASSIFICATION_TYPE = U
NORAD_CAT_ID   = 66922
ELEMENT_SET_NO = 999
REV_AT_EPOCH   = 36
BSTAR          = -.868E-5
MEAN_MOTION_DOT = -.167E-5
MEAN_MOTION_DDOT = 0

CCSDS_OMM_VERS = 2.0
CREATION_DATE  = 
ORIGINATOR     = 

OBJECT_NAME    = HULIANWANG DIGUI 14J
OBJECT_ID      = 2025-285J
CENTER_NAME    = EARTH
REF_FRAME      = TEME
TIME_SYSTEM    = UTC
MEAN_ELEMENT_THEORY = SGP/SGP4

EPOCH          = 2025-12-07T22:29:36.786048
MEAN_MOTION    = 14.06515715
ECCENTRICITY   = .00053876
INCLINATION    = 50.0075
RA_OF_ASC_NODE = 136.8754
ARG_OF_PERICENTER = 280.8946
MEAN_ANOMALY   = 79.1354

EPHEMERIS_TYPE = 0
CLASSIFICATION_TYPE = U
NORAD_CAT_ID   = 66923
ELEMENT_SET_NO = 999
REV_AT_EPOCH   = 23
BSTAR          = -.47305E-6
MEAN_MOTION_DOT = -.153E-5
MEAN_MOTION_DDOT = 0

CCSDS_OMM_VERS = 2.0
CREATION_DATE  = 
ORIGINATOR     = 

OBJECT_NAME    = CZ-8A R/B
OBJECT_ID      = 2025-285K
CENTER_NAME    = EARTH
REF_FRAME      = TEME
TIME_SYSTEM    = UTC
MEAN_ELEMENT_THEORY = SGP/SGP4

EPOCH          = 2025-12-08T19:39:29.828736
MEAN_MOTION    = 14.30499340
ECCENTRICITY   = .0119337
INCLINATION    = 50.0061
RA_OF_ASC_NODE = 132.8436
ARG_OF_PERICENTER = 92.9076
MEAN_ANOMALY   = 268.5504

EPHEMERIS_TYPE = 0
CLASSIFICATION_TYPE = U
NORAD_CAT_ID   = 66924
ELEMENT_SET_NO = 999
REV_AT_EPOCH   = 36
BSTAR          = .41549E-4
MEAN_MOTION_DOT = -.5E-6
MEAN_MOTION_DDOT = 0

