2025-284B               
1 66914U 25284B   25341.98505994  .00013048  00000+0  60156-3 0  9997
2 66914  80.4047 135.7909 0012859 245.1406 114.8485 15.20093076   400
HULIANWANG DIGUI 14A    
1 66915U 25285A   25342.86224201 -.00000127  00000+0  15281-4 0  9991
2 66915  50.0042 133.0995 0008095 269.5981  90.3997 14.05465762   368
HULIANWANG DIGUI 14B    
1 66916U 25285B   25342.86215337 -.00000127  00000+0  15124-4 0  9998
2 66916  50.0053 133.1001 0006950 264.3165  95.6948 14.05512167   361
HULIANWANG DIGUI 14C    
1 66917U 25285C   25342.86202047 -.00000161  00000+0 -51424-5 0  9996
2 66917  50.0018 133.0964 0007533 272.1207  87.8835 14.05578257   362
HULIANWANG DIGUI 14D    
1 66918U 25285D   25342.86180984 -.00000128  00000+0  14778-4 0  9994
2 66918  50.0041 133.0972 0006433 267.2757  92.7412 14.05702904   365
HULIANWANG DIGUI 14E    
1 66919U 25285E   25342.86176914 -.00000167  00000+0 -91601-5 0  9998
2 66919  50.0055 133.0994 0007838 278.6052  81.3966 14.05713942   361
HULIANWANG DIGUI 14F    
1 66920U 25285F   25342.86154547  .00000087  00000+0  14540-3 0  9992
2 66920  50.0084 133.1005 0005895 274.9203  85.1030 14.05850354   360
HULIANWANG DIGUI 14G    
1 66921U 25285G   25342.86148225 -.00000129  00000+0  14289-4 0  9998
2 66921  50.0114 133.1024 0006959 282.0248  77.9877 14.05882293   362
HULIANWANG DIGUI 14H    
1 66922U 25285H   25342.86128340 -.00000167  00000+0 -86800-5 0  9997
2 66922  50.0077 133.0983 0006912 288.2879  71.7274 14.05997561   369
HULIANWANG DIGUI 14J    
1 66923U 25285J   25341.93723132 -.00000153  00000+0 -47305-6 0  9998
2 66923  50.0075 136.8754 0005387 280.8946  79.1354 14.06515715   238
CZ-8A R/B               
1 66924U 25285K   25342.81909524 -.00000050  00000+0  41549-4 0  9995
2 66924  50.0061 132.8436 0119337  92.9076 268.5504 14.30499340   361
